{
  "type": "FeatureCollection",
  "features": [
    {
      "type": "Feature",
      "properties": {
        "norad_id": 33886,
        "name": "IRIDIUM 33 DEB",
        "group": "iridium-33-debris",
        "lat": -52.856458988509274,
        "lon": -106.70455963314444,
        "alt_km": 770.529686157779,
        "timestamp": "2025-12-09T16:56:36.959060+00:00",
        "meta_object_name": "IRIDIUM 33 DEB",
        "meta_object_id": "1997-051BF",
        "meta_epoch": "2025-12-09T12:34:01.371072",
        "meta_mean_motion": 14.36046616,
        "meta_eccentricity": 0.0012135,
        "meta_inclination": 86.3831,
        "meta_ra_of_asc_node": 68.5823,
        "meta_arg_of_pericenter": 254.1199,
        "meta_mean_anomaly": 116.7155,
        "meta_ephemeris_type": 0,
        "meta_classification_type": "U",
        "meta_norad_cat_id": 33886,
        "meta_element_set_no": 999,
        "meta_rev_at_epoch": 88006,
        "meta_bstar": 0.0003732,
        "meta_mean_motion_dot": 1.105e-05,
        "meta_mean_motion_ddot": 0,
        "tle_line1": "1 33886U 97051BF  25343.52362698  .00001105  00000+0  37320-3 0  9992",
        "tle_line2": "2 33886  86.3831  68.5823 0012135 254.1199 116.7155 14.36046616880069"
      },
      "geometry": {
        "type": "Point",
        "coordinates": [
          -106.70455963314444,
          -52.856458988509274
        ]
      }
    },
    {
      "type": "Feature",
      "properties": {
        "norad_id": 33887,
        "name": "IRIDIUM 33 DEB",
        "group": "iridium-33-debris",
        "lat": 23.418891360618645,
        "lon": -176.9041085664349,
        "alt_km": 767.0088828848102,
        "timestamp": "2025-12-09T16:56:36.959071+00:00",
        "meta_object_name": "IRIDIUM 33 DEB",
        "meta_object_id": "1997-051BG",
        "meta_epoch": "2025-12-09T07:58:22.365120",
        "meta_mean_motion": 14.37216828,
        "meta_eccentricity": 0.0004194,
        "meta_inclination": 86.3047,
        "meta_ra_of_asc_node": 4.8609,
        "meta_arg_of_pericenter": 242.0671,
        "meta_mean_anomaly": 141.6982,
        "meta_ephemeris_type": 0,
        "meta_classification_type": "U",
        "meta_norad_cat_id": 33887,
        "meta_element_set_no": 999,
        "meta_rev_at_epoch": 88116,
        "meta_bstar": 0.00025793,
        "meta_mean_motion_dot": 7.87e-06,
        "meta_mean_motion_ddot": 0,
        "tle_line1": "1 33887U 97051BG  25343.33220330  .00000787  00000+0  25793-3 0  9994",
        "tle_line2": "2 33887  86.3047   4.8609 0004194 242.0671 141.6982 14.37216828881163"
      },
      "geometry": {
        "type": "Point",
        "coordinates": [
          -176.9041085664349,
          23.418891360618645
        ]
      }
    },
    {
      "type": "Feature",
      "properties": {
        "norad_id": 33953,
        "name": "IRIDIUM 33 DEB",
        "group": "iridium-33-debris",
        "lat": 4.884935727601775,
        "lon": -125.213772545362,
        "alt_km": 704.9223100619638,
        "timestamp": "2025-12-09T16:56:36.959083+00:00",
        "meta_object_name": "IRIDIUM 33 DEB",
        "meta_object_id": "1997-051BN",
        "meta_epoch": "2025-12-09T11:16:25.701024",
        "meta_mean_motion": 14.55272572,
        "meta_eccentricity": 0.001848,
        "meta_inclination": 86.384,
        "meta_ra_of_asc_node": 55.1984,
        "meta_arg_of_pericenter": 112.7861,
        "meta_mean_anomaly": 265.1429,
        "meta_ephemeris_type": 0,
        "meta_classification_type": "U",
        "meta_norad_cat_id": 33953,
        "meta_element_set_no": 999,
        "meta_rev_at_epoch": 88256,
        "meta_bstar": 0.0018148,
        "meta_mean_motion_dot": 7.899e-05,
        "meta_mean_motion_ddot": 0,
        "tle_line1": "1 33953U 97051BN  25343.46974191  .00007899  00000+0  18148-2 0  9999",
        "tle_line2": "2 33953  86.3840  55.1984 0018480 112.7861 265.1429 14.55272572882561"
      },
      "geometry": {
        "type": "Point",
        "coordinates": [
          -125.213772545362,
          4.884935727601775
        ]
      }
    },
    {
      "type": "Feature",
      "properties": {
        "norad_id": 33960,
        "name": "IRIDIUM 33 DEB",
        "group": "iridium-33-debris",
        "lat": 14.25618848399418,
        "lon": -68.10153327316998,
        "alt_km": 611.7209833103116,
        "timestamp": "2025-12-09T16:56:36.959094+00:00",
        "meta_object_name": "IRIDIUM 33 DEB",
        "meta_object_id": "1997-051BV",
        "meta_epoch": "2025-12-09T07:42:37.372896",
        "meta_mean_motion": 14.8489733,
        "meta_eccentricity": 0.0007345,
        "meta_inclination": 86.2536,
        "meta_ra_of_asc_node": 291.1258,
        "meta_arg_of_pericenter": 67.4678,
        "meta_mean_anomaly": 51.7843,
        "meta_ephemeris_type": 0,
        "meta_classification_type": "U",
        "meta_norad_cat_id": 33960,
        "meta_element_set_no": 999,
        "meta_rev_at_epoch": 88816,
        "meta_bstar": 0.0041557,
        "meta_mean_motion_dot": 0.00035526,
        "meta_mean_motion_ddot": 0,
        "tle_line1": "1 33960U 97051BV  25343.32126589  .00035526  00000+0  41557-2 0  9990",
        "tle_line2": "2 33960  86.2536 291.1258 0007345  67.4678  51.7843 14.84897330888164"
      },
      "geometry": {
        "type": "Point",
        "coordinates": [
          -68.10153327316998,
          14.25618848399418
        ]
      }
    },
    {
      "type": "Feature",
      "properties": {
        "norad_id": 33966,
        "name": "IRIDIUM 33 DEB",
        "group": "iridium-33-debris",
        "lat": 3.0691175660296888,
        "lon": 47.52310072621456,
        "alt_km": 734.4909460895396,
        "timestamp": "2025-12-09T16:56:36.959105+00:00",
        "meta_object_name": "IRIDIUM 33 DEB",
        "meta_object_id": "1997-051CB",
        "meta_epoch": "2025-12-09T05:36:29.443104",
        "meta_mean_motion": 14.49572478,
        "meta_eccentricity": 0.0006999,
        "meta_inclination": 86.3924,
        "meta_ra_of_asc_node": 47.5319,
        "meta_arg_of_pericenter": 200.2452,
        "meta_mean_anomaly": 219.7781,
        "meta_ephemeris_type": 0,
        "meta_classification_type": "U",
        "meta_norad_cat_id": 33966,
        "meta_element_set_no": 999,
        "meta_rev_at_epoch": 88391,
        "meta_bstar": 0.00091318,
        "meta_mean_motion_dot": 3.524e-05,
        "meta_mean_motion_ddot": 0,
        "tle_line1": "1 33966U 97051CB  25343.23367411  .00003524  00000+0  91318-3 0  9991",
        "tle_line2": "2 33966  86.3924  47.5319 0006999 200.2452 219.7781 14.49572478883913"
      },
      "geometry": {
        "type": "Point",
        "coordinates": [
          47.52310072621456,
          3.0691175660296888
        ]
      }
    },
    {
      "type": "Feature",
      "properties": {
        "norad_id": 34071,
        "name": "IRIDIUM 33 DEB",
        "group": "iridium-33-debris",
        "lat": 70.52489472485934,
        "lon": 29.558825037590154,
        "alt_km": 715.7654883805171,
        "timestamp": "2025-12-09T16:56:36.959116+00:00",
        "meta_object_name": "IRIDIUM 33 DEB",
        "meta_object_id": "1997-051CE",
        "meta_epoch": "2025-12-09T11:38:50.523936",
        "meta_mean_motion": 14.49443549,
        "meta_eccentricity": 0.0009807,
        "meta_inclination": 86.3456,
        "meta_ra_of_asc_node": 19.2427,
        "meta_arg_of_pericenter": 116.2581,
        "meta_mean_anomaly": 243.9632,
        "meta_ephemeris_type": 0,
        "meta_classification_type": "U",
        "meta_norad_cat_id": 34071,
        "meta_element_set_no": 999,
        "meta_rev_at_epoch": 88287,
        "meta_bstar": 0.00098998,
        "meta_mean_motion_dot": 3.809e-05,
        "meta_mean_motion_ddot": 0,
        "tle_line1": "1 34071U 97051CE  25343.48530699  .00003809  00000+0  98998-3 0  9993",
        "tle_line2": "2 34071  86.3456  19.2427 0009807 116.2581 243.9632 14.49443549882871"
      },
      "geometry": {
        "type": "Point",
        "coordinates": [
          29.558825037590154,
          70.52489472485934
        ]
      }
    },
    {
      "type": "Feature",
      "properties": {
        "norad_id": 34077,
        "name": "IRIDIUM 33 DEB",
        "group": "iridium-33-debris",
        "lat": 73.51566040488373,
        "lon": -139.48942943644064,
        "alt_km": 666.8191352236881,
        "timestamp": "2025-12-09T16:56:36.959127+00:00",
        "meta_object_name": "IRIDIUM 33 DEB",
        "meta_object_id": "1997-051CL",
        "meta_epoch": "2025-12-09T11:35:53.625120",
        "meta_mean_motion": 14.64763438,
        "meta_eccentricity": 0.0010536,
        "meta_inclination": 86.3858,
        "meta_ra_of_asc_node": 52.9416,
        "meta_arg_of_pericenter": 49.8127,
        "meta_mean_anomaly": 322.4549,
        "meta_ephemeris_type": 0,
        "meta_classification_type": "U",
        "meta_norad_cat_id": 34077,
        "meta_element_set_no": 999,
        "meta_rev_at_epoch": 88285,
        "meta_bstar": 0.0023327,
        "meta_mean_motion_dot": 0.00012472,
        "meta_mean_motion_ddot": 0,
        "tle_line1": "1 34077U 97051CL  25343.48325955  .00012472  00000+0  23327-2 0  9995",
        "tle_line2": "2 34077  86.3858  52.9416 0010536  49.8127 322.4549 14.64763438882850"
      },
      "geometry": {
        "type": "Point",
        "coordinates": [
          -139.48942943644064,
          73.51566040488373
        ]
      }
    }
  ]
}